{"epoch":1784902576,"count":18312,"objects":[{"id":"50181","name":"STARLINK-3285","type":"PAYLOAD","l1":"1 50181U 21125AB  26205.33335648  .00065308  00000-0  20999-2 0  9999","l2":"2 50181  53.1603 352.7027 0000992  98.8490 259.6599 15.31669301  5813"},{"id":"50182","name":"STARLINK-3277","type":"PAYLOAD","l1":"1 50182U 21125AC  26204.38676613 -.00000278  00000-0  27858-5 0  9994","l2":"2 50182  53.1625 354.0256 0000635  83.7589 276.3485 15.31699021257207"},{"id":"50183","name":"STARLINK-3281","type":"PAYLOAD","l1":"1 50183U 21125AD  26204.84589796  .00015318  00000-0  95690-3 0  9998","l2":"2 50183  53.1621 357.4828 0000721  86.8406 273.2669 15.09655379257207"},{"id":"50185","name":"STARLINK-3279","type":"PAYLOAD","l1":"1 50185U 21125AF  26204.80230504  .00001093  00000-0  46990-4 0  9991","l2":"2 50185  53.1578 355.0353 0001741  87.4437 272.6764 15.31698560257192"},{"id":"50186","name":"STARLINK-3274","type":"PAYLOAD","l1":"1 50186U 21125AG  26204.46894969  .00000590  00000-0  30771-4 0  9996","l2":"2 50186  53.1615   5.6674 0000998  83.1850 276.9265 15.31704132257000"},{"id":"50187","name":"STARLINK-3272","type":"PAYLOAD","l1":"1 50187U 21125AH  26203.73349714  .00015083  00000-0  86038-3 0  9998","l2":"2 50187  53.2147 351.0200 0001482  79.6312 280.4849 15.12967962257130"},{"id":"50189","name":"STARLINK-3276","type":"PAYLOAD","l1":"1 50189U 21125AK  26204.78312944  .00021263  00000-0  10511-2 0  9990","l2":"2 50189  53.2138 351.2431 0002385 168.0220 192.0833 15.17809308257285"},{"id":"50190","name":"STARLINK-3268","type":"PAYLOAD","l1":"1 50190U 21125AL  26204.79016436 -.00001150  00000-0 -22904-4 0  9996","l2":"2 50190  53.1608 341.8318 0001268  78.3657 281.7487 15.34383377257365"},{"id":"50191","name":"STARLINK-3273","type":"PAYLOAD","l1":"1 50191U 21125AM  26205.33335648  .00065795  00000-0  19437-2 0  9995","l2":"2 50191  53.1606   3.2779 0001150  81.6199 106.4932 15.34363700  5662"},{"id":"50192","name":"STARLINK-3259","type":"PAYLOAD","l1":"1 50192U 21125AN  26205.33335648  .00116595  00000-0  50485-2 0  9999","l2":"2 50192  53.1595 344.8834 0001742  91.9051  61.5347 15.21510118  5815"},{"id":"50193","name":"STARLINK-3261","type":"PAYLOAD","l1":"1 50193U 21125AP  26205.33335648  .00063627  00000-0  20463-2 0  9990","l2":"2 50193  53.1597 343.6436 0001002  89.8560 280.9243 15.31675619  5814"},{"id":"50195","name":"STARLINK-3266","type":"PAYLOAD","l1":"1 50195U 21125AR  26205.33335648  .00307329  00000-0  10259-1 0  9993","l2":"2 50195  53.1648 344.1171 0001296  87.5053  60.6751 15.29258011  5819"},{"id":"50197","name":"STARLINK-3267","type":"PAYLOAD","l1":"1 50197U 21125AT  26205.33335648  .00129984  00000-0  53951-2 0  9991","l2":"2 50197  53.1594 344.7831 0001273 111.6859 134.0647 15.22875954  5801"},{"id":"50198","name":"STARLINK-3264","type":"PAYLOAD","l1":"1 50198U 21125AU  26204.83401360  .00014994  00000-0  78889-3 0  9993","l2":"2 50198  53.1601 347.2825 0000661  96.0073 264.0997 15.15858473257299"},{"id":"50199","name":"STARLINK-3270","type":"PAYLOAD","l1":"1 50199U 21125AV  26205.33335648  .00102781  00000-0  45340-2 0  9992","l2":"2 50199  53.1608 344.8169 0001091  55.3661 351.8865 15.20951862  5764"},{"id":"50200","name":"STARLINK-3235","type":"PAYLOAD","l1":"1 50200U 21125AW  26205.33335648  .00103641  00000-0  45136-2 0  9994","l2":"2 50200  53.1609 344.5593 0001215  66.4616 334.6301 15.21386165  5805"},{"id":"50202","name":"STARLINK-3256","type":"PAYLOAD","l1":"1 50202U 21125AY  26204.83335504  .00003424  00000-0  13087-3 0  9990","l2":"2 50202  53.1599 346.1136 0000776  15.6382 344.4643 15.29370026257302"},{"id":"50203","name":"STARLINK-3257","type":"PAYLOAD","l1":"1 50203U 21125AZ  26204.71321948 -.00001084  00000-0 -25255-4 0  9998","l2":"2 50203  53.1614 346.5105 0001215  67.6752 292.4377 15.29349172257357"},{"id":"50204","name":"STARLINK-3254","type":"PAYLOAD","l1":"1 50204U 21125BA  26204.82880048  .00005450  00000-0  20101-3 0  9995","l2":"2 50204  53.1580 346.0054 0001323  52.0922 308.0198 15.29362732257368"},{"id":"50205","name":"STARLINK-3260","type":"PAYLOAD","l1":"1 50205U 21125BB  26205.32382983 -.00000178  00000-0  68906-5 0  9997","l2":"2 50205  53.1609 315.4331 0001300  87.5394 272.5746 15.08833046257788"},{"id":"50804","name":"STARLINK-3323","type":"PAYLOAD","l1":"1 50804U 22001B   26205.33335648  .00053120  00000-0  24154-2 0  9991","l2":"2 50804  53.1615 265.0333 0001923  79.7147  57.2717 15.20247099  5803"},{"id":"50805","name":"STARLINK-3333","type":"PAYLOAD","l1":"1 50805U 22001C   26204.21243158 -.00000185  00000-0  64322-5 0  9990","l2":"2 50805  53.1592 270.4284 0000791  91.4848 268.6234 15.08831963251006"},{"id":"50806","name":"STARLINK-3335","type":"PAYLOAD","l1":"1 50806U 22001D   26205.20235406  .00000409  00000-0  43821-4 0  9996","l2":"2 50806  53.1595 265.9797 0000951  88.7456 271.3644 15.08827500251154"},{"id":"50808","name":"STARLINK-3355","type":"PAYLOAD","l1":"1 50808U 22001F   26205.32547017  .00000268  00000-0  20383-4 0  9996","l2":"2 50808  53.1589 262.6039 0001018  74.0005 286.1108 15.31702432251213"},{"id":"50809","name":"STARLINK-3232","type":"PAYLOAD","l1":"1 50809U 22001G   26205.26488332  .00001153  00000-0  48908-4 0  9991","l2":"2 50809  53.1604 262.8983 0001186  96.7323 263.3813 15.31701218251202"},{"id":"50812","name":"STARLINK-3338","type":"PAYLOAD","l1":"1 50812U 22001K   26205.22444817  .00000774  00000-0  66698-4 0  9995","l2":"2 50812  53.1599 265.9839 0000989  88.4498 271.6607 15.08831049251151"},{"id":"50813","name":"STARLINK-3349","type":"PAYLOAD","l1":"1 50813U 22001L   26205.29182524  .00062337  00000-0  11251-2 0  9993","l2":"2 50813  53.1996 197.3930 0004998  31.4075 328.7232 15.49169099252148"},{"id":"50814","name":"STARLINK-3324","type":"PAYLOAD","l1":"1 50814U 22001M   26205.33335648  .00696254  00000-0  22932-1 0  9994","l2":"2 50814  53.1637 274.4713 0001216  78.0825 253.3273 15.28809042  5710"},{"id":"50815","name":"STARLINK-3234","type":"PAYLOAD","l1":"1 50815U 22001N   26205.33335648  .00997658  00000-0  32646-1 0  9990","l2":"2 50815  53.1596 274.4682 0000818  97.6904 175.2540 15.28522162  5817"},{"id":"50816","name":"STARLINK-3342","type":"PAYLOAD","l1":"1 50816U 22001P   26205.31274152  .00025966  00000-0  12345-2 0  9990","l2":"2 50816  53.2120 267.0894 0001269 323.2146  36.8764 15.19053804251154"}]}