OBJECT_NAME,OBJECT_ID,EPOCH,MEAN_MOTION,ECCENTRICITY,INCLINATION,RA_OF_ASC_NODE,ARG_OF_PERICENTER,MEAN_ANOMALY,EPHEMERIS_TYPE,CLASSIFICATION_TYPE,NORAD_CAT_ID,ELEMENT_SET_NO,REV_AT_EPOCH,BSTAR,MEAN_MOTION_DOT,MEAN_MOTION_DDOT
STARLINK-3285,2021-125AB,2026-07-24T08:00:01.999872,15.31669301,.00009922,53.1603,352.7027,98.8490,259.6599,0,U,50181,999,581,.20999368E-2,.65308E-3,0
STARLINK-3277,2021-125AC,2026-07-23T09:16:56.593632,15.31699021,.0000635,53.1625,354.0256,83.7589,276.3485,0,U,50182,999,25720,.27858E-5,-.278E-5,0
STARLINK-3281,2021-125AD,2026-07-23T20:18:05.583744,15.09655379,.00007213,53.1621,357.4828,86.8406,273.2669,0,U,50183,999,25720,.95690207E-3,.15318E-3,0
STARLINK-3279,2021-125AF,2026-07-23T19:15:19.155456,15.31698560,.0001741,53.1578,355.0353,87.4437,272.6764,0,U,50185,999,25719,.46989764E-4,.1093E-4,0
STARLINK-3274,2021-125AG,2026-07-23T11:15:17.253216,15.31704132,.0000998,53.1615,5.6674,83.1850,276.9265,0,U,50186,999,25700,.30771E-4,.59E-5,0
STARLINK-3272,2021-125AH,2026-07-22T17:36:14.152896,15.12967962,.00014819,53.2147,351.0200,79.6312,280.4849,0,U,50187,999,25713,.86037833E-3,.15083E-3,0
STARLINK-3276,2021-125AK,2026-07-23T18:47:42.383616,15.17809308,.00023853,53.2138,351.2431,168.0220,192.0833,0,U,50189,999,25728,.10511422E-2,.21263E-3,0
STARLINK-3268,2021-125AL,2026-07-23T18:57:50.200704,15.34383377,.00012685,53.1608,341.8318,78.3657,281.7487,0,U,50190,999,25736,-.22904458E-4,-.115E-4,0
STARLINK-3273,2021-125AM,2026-07-24T08:00:01.999872,15.34363700,.00011498,53.1606,3.2779,81.6199,106.4932,0,U,50191,999,566,.19436743E-2,.65795E-3,0
STARLINK-3259,2021-125AN,2026-07-24T08:00:01.999872,15.21510118,.00017419,53.1595,344.8834,91.9051,61.5347,0,U,50192,999,581,.50485302E-2,.116595E-2,0
STARLINK-3261,2021-125AP,2026-07-24T08:00:01.999872,15.31675619,.00010015,53.1597,343.6436,89.8560,280.9243,0,U,50193,999,581,.20462621E-2,.63627E-3,0
STARLINK-3266,2021-125AR,2026-07-24T08:00:01.999872,15.29258011,.00012963,53.1648,344.1171,87.5053,60.6751,0,U,50195,999,581,.10259454E-1,.307329E-2,0
STARLINK-3267,2021-125AT,2026-07-24T08:00:01.999872,15.22875954,.00012726,53.1594,344.7831,111.6859,134.0647,0,U,50197,999,580,.5395111E-2,.129984E-2,0
STARLINK-3264,2021-125AU,2026-07-23T20:00:58.775040,15.15858473,.00006605,53.1601,347.2825,96.0073,264.0997,0,U,50198,999,25729,.78889036E-3,.14994E-3,0
STARLINK-3270,2021-125AV,2026-07-24T08:00:01.999872,15.20951862,.00010909,53.1608,344.8169,55.3661,351.8865,0,U,50199,999,576,.45340126E-2,.102781E-2,0
STARLINK-3235,2021-125AW,2026-07-24T08:00:01.999872,15.21386165,.00012155,53.1609,344.5593,66.4616,334.6301,0,U,50200,999,580,.45135893E-2,.103641E-2,0
STARLINK-3256,2021-125AY,2026-07-23T20:00:01.875456,15.29370026,.00007762,53.1599,346.1136,15.6382,344.4643,0,U,50202,999,25730,.13086757E-3,.3424E-4,0
STARLINK-3257,2021-125AZ,2026-07-23T17:07:02.163072,15.29349172,.00012148,53.1614,346.5105,67.6752,292.4377,0,U,50203,999,25735,-.25254619E-4,-.1084E-4,0
STARLINK-3254,2021-125BA,2026-07-23T19:53:28.361472,15.29362732,.00013229,53.1580,346.0054,52.0922,308.0198,0,U,50204,999,25736,.20100646E-3,.545E-4,0
STARLINK-3260,2021-125BB,2026-07-24T07:46:18.897312,15.08833046,.00012998,53.1609,315.4331,87.5394,272.5746,0,U,50205,999,25778,.6890633E-5,-.178E-5,0
STARLINK-3323,2022-001B,2026-07-24T08:00:01.999872,15.20247099,.00019233,53.1615,265.0333,79.7147,57.2717,0,U,50804,999,580,.24153577E-2,.5312E-3,0
STARLINK-3333,2022-001C,2026-07-23T05:05:54.088512,15.08831963,.00007914,53.1592,270.4284,91.4848,268.6234,0,U,50805,999,25100,.643221E-5,-.185E-5,0
STARLINK-3335,2022-001D,2026-07-24T04:51:23.390784,15.08827500,.00009507,53.1595,265.9797,88.7456,271.3644,0,U,50806,999,25115,.43820795E-4,.409E-5,0
STARLINK-3355,2022-001F,2026-07-24T07:48:40.622688,15.31702432,.00010182,53.1589,262.6039,74.0005,286.1108,0,U,50808,999,25121,.20383409E-4,.268E-5,0
STARLINK-3232,2022-001G,2026-07-24T06:21:25.918848,15.31701218,.00011858,53.1604,262.8983,96.7323,263.3813,0,U,50809,999,25120,.48908032E-4,.1153E-4,0
STARLINK-3338,2022-001K,2026-07-24T05:23:12.321888,15.08831049,.00009886,53.1599,265.9839,88.4498,271.6607,0,U,50812,999,25115,.66697521E-4,.774E-5,0
STARLINK-3349,2022-001L,2026-07-24T07:00:13.700736,15.49169099,.00049975,53.1996,197.3930,31.4075,328.7232,0,U,50813,999,25214,.11250915E-2,.62337E-3,0
STARLINK-3324,2022-001M,2026-07-24T08:00:01.999872,15.28809042,.00012165,53.1637,274.4713,78.0825,253.3273,0,U,50814,999,571,.22931618E-1,.696254E-2,0
STARLINK-3234,2022-001N,2026-07-24T08:00:01.999872,15.28522162,.0000818,53.1596,274.4682,97.6904,175.2540,0,U,50815,999,581,.32646141E-1,.997658E-2,0
STARLINK-3342,2022-001P,2026-07-24T07:30:20.867328,15.19053804,.00012686,53.2120,267.0894,323.2146,36.8764,0,U,50816,999,25115,.12344736E-2,.25966E-3,0
